OBJECT_NAME,OBJECT_ID,EPOCH,MEAN_MOTION,ECCENTRICITY,INCLINATION,RA_OF_ASC_NODE,ARG_OF_PERICENTER,MEAN_ANOMALY,EPHEMERIS_TYPE,CLASSIFICATION_TYPE,NORAD_CAT_ID,ELEMENT_SET_NO,REV_AT_EPOCH,BSTAR,MEAN_MOTION_DOT,MEAN_MOTION_DDOT
GALAXY 17 (G-17),2007-016B,2026-06-08T09:33:23.133024,1.00271692,.0004865,2.9489,80.0111,15.6807,219.4545,0,U,31307,999,6971,0,-.191E-5,0
YAOGAN-2,2007-019A,2026-06-08T12:25:31.744128,14.82663989,.0019413,98.2657,19.8269,304.1348,55.8023,0,U,31490,999,2633,.11416E-3,.865E-5,0
GLOBALSTAR M069,2007-020C,2026-06-08T12:52:17.908032,12.23470905,.000251,52.0042,276.6118,130.2556,313.1798,0,U,31573,999,87774,.8153E-4,-.84E-6,0
GLOBALSTAR M072,2007-020D,2026-06-08T01:56:08.492640,11.91658483,.00013731,51.9909,124.4888,306.8467,133.3638,0,U,31574,999,87389,.20806068E-3,-.69E-6,0
COSMO-SKYMED 1,2007-023A,2026-06-08T12:18:34.439904,14.97061174,.0001133,97.8857,351.2969,80.8199,279.3151,0,U,31598,999,2849,.19483E-3,.2185E-4,0
TERRASAR-X,2007-026A,2026-06-08T11:55:50.527776,15.19149352,.0001702,97.4450,167.3290,82.8468,277.2960,0,U,31698,999,5190,.36934E-4,.709E-5,0
COSMOS 2428,2007-029A,2026-06-08T00:15:51.494688,14.12930113,.0007234,70.9375,13.7451,152.6375,207.5129,0,U,31792,999,97685,-.67939122E-4,-.174E-5,0
SAR-LUPE 2,2007-030A,2026-06-08T10:25:34.396032,15.48882302,.0007808,98.1019,262.7935,153.8529,206.3115,0,U,31797,999,5558,.16105E-2,.87638E-3,0
WORLDVIEW-1 (WV-1),2007-041A,2026-06-08T11:52:52.372704,15.24170952,.0003041,97.3862,279.3652,45.0172,315.1311,0,U,32060,999,4155,.25523E-3,.6143E-4,0
INTELSAT 11 (IS-11),2007-044B,2026-06-08T11:34:04.120032,0.99053713,.0001881,3.5418,78.7746,82.7103,72.9782,0,U,32253,999,6836,0,-.227E-5,0
WGS F1 (USA 195),2007-046A,2026-06-08T06:20:10.744800,1.00270005,.0000249,0.0453,95.2847,348.7291,225.2092,0,U,32258,999,5224,0,-.251E-5,0
NAVSTAR 60 (USA 196),2007-047A,2026-06-08T06:00:04.320864,2.00555680,.0166411,54.0887,80.4341,87.2037,274.7013,0,U,32260,999,13663,0,-.13E-6,0
GLOBALSTAR M066,2007-048C,2026-06-07T23:34:01.669728,12.30388743,.00053137,51.9587,84.3367,24.4172,56.6252,0,U,32265,999,85909,-.21077694E-3,-.119E-5,0
COSMOS 2433 [GLONASS-M],2007-052A,2026-06-07T23:59:37.230144,2.13104383,.0002175,65.5821,316.2429,191.1686,168.8259,0,U,32275,999,14486,0,-.28E-6,0
COSMOS 2432 [GLONASS-M],2007-052B,2026-06-08T01:37:38.809920,2.13103443,.00078807,65.5986,316.3679,333.8605,22.2735,0,U,32276,999,14488,0,-.28E-6,0
YAOGAN-3,2007-055A,2026-06-08T12:51:38.609856,14.90748581,.0001851,97.8158,189.4997,84.5687,275.5742,0,U,32289,999,458,.20987E-3,.2006E-4,0
SKYNET 5B,2007-056B,2026-06-08T01:21:38.912832,1.00270201,.00040258,5.2283,73.6151,0.0600,228.2744,0,U,32294,999,6810,0,.155E-5,0
ASTRA 4A,2007-057A,2026-06-08T08:16:22.987200,1.00269841,.0002373,0.0201,310.6904,128.2822,306.6778,0,U,32299,999,5155,0,.48E-6,0
COSMO-SKYMED 2,2007-059A,2026-06-08T12:28:20.280288,14.82148015,.000142,97.8885,343.2436,84.5119,275.6256,0,U,32376,999,72,.80717E-4,.59E-5,0
RADARSAT-2,2007-061A,2026-06-08T12:01:58.153728,14.29983308,.0001307,98.5783,166.5581,80.7773,279.3557,0,U,32382,999,96471,.62937E-4,.119E-5,0
NAVSTAR 61 (USA 199),2007-062A,2026-06-07T13:19:54.461280,2.00559526,.00355613,55.0397,274.5401,165.0044,180.7176,0,U,32384,999,13531,0,-.36E-6,0
HORIZONS-2,2007-063B,2026-06-08T11:19:14.530944,1.00271899,.0003998,2.5786,80.7328,355.4419,276.7304,0,U,32388,999,6772,0,-.238E-5,0
COSMOS 2434 [GLONASS-M],2007-065A,2026-06-07T05:55:45.925248,2.13101527,.0001095,64.3173,192.2510,341.2525,51.1973,0,U,32393,999,14356,0,.85E-6,0
COSMOS 2436 [GLONASS-M],2007-065C,2026-06-08T10:38:20.897952,2.13100356,.001718,64.3259,192.2829,354.5788,7.9365,0,U,32395,999,14354,0,.98E-6,0
THURAYA-3,2008-001A,2026-06-08T03:31:09.067872,1.00008915,.00012198,5.9734,35.7816,152.1321,206.0146,0,U,32404,999,6739,0,-.116E-5,0
THOR 5,2008-006A,2026-06-08T08:14:45.642048,1.00272930,.0002588,0.0398,257.1194,188.9096,293.6542,0,U,32487,999,6722,0,.7E-7,0
AMC-14,2008-011A,2026-06-05T16:13:44.125824,1.00353185,.00458262,23.9919,20.6590,6.6193,172.4980,0,U,32708,999,6805,0,-.14E-6,0
NAVSTAR 62 (USA 201),2008-012A,2026-06-08T03:53:32.066880,2.00572204,.0211085,54.4962,150.2852,247.7307,110.0246,0,U,32711,999,13357,0,.108E-5,0
DIRECTV 11,2008-013A,2026-06-08T09:50:19.762944,1.00270228,.0000293,0.0324,183.5243,229.9029,251.7771,0,U,32729,999,4550,0,-.11E-5,0
ICO G1,2008-016A,2026-06-08T04:23:11.639040,1.00272510,.0002293,5.5336,36.1764,27.7434,165.5941,0,U,32763,999,6645,0,-.158E-5,0
VINASAT-1,2008-018A,2026-06-08T12:17:57.129792,1.00271630,.0001218,0.0094,332.6781,109.8235,130.8443,0,U,32767,999,6650,0,-.312E-5,0
STAR ONE C2,2008-018B,2026-06-08T06:13:48.855936,1.00272881,.00027025,1.2172,82.5445,358.5158,204.0559,0,U,32768,999,6656,0,-.261E-5,0
CARTOSAT-2A,2008-021A,2026-06-08T07:41:26.816064,14.79227367,.00126766,97.7634,208.3316,134.7128,225.5119,0,U,32783,999,97749,.14864554E-3,.1055E-4,0
CUTE-1.7+APD II (CO-65),2008-021C,2026-06-08T05:35:31.680384,15.09365894,.00103561,97.8271,140.4661,64.8771,295.3530,0,U,32785,999,98384,.34936164E-3,.5519E-4,0
CANX-2,2008-021H,2026-06-07T22:00:50.692896,15.05549911,.00120999,97.8630,138.5159,78.2854,281.9729,0,U,32790,999,98341,.26693055E-3,.3784E-4,0
SEEDS II (CO-66),2008-021J,2026-06-07T22:18:37.461600,15.32435639,.00024648,97.7519,156.3875,31.6806,328.4582,0,U,32791,999,98587,.63151099E-3,.19726E-3,0
AMOS-3,2008-022A,2026-06-08T04:58:53.170176,1.00471514,.00019382,0.4311,86.3839,63.1243,214.1725,0,U,32794,999,8224,0,.17E-5,0
GALAXY 18 (G-18),2008-024A,2026-06-08T12:44:24.704736,1.00272538,.0003195,0.0129,290.7534,158.2422,236.0279,0,U,32951,999,4576,0,.41E-6,0
YUBILEINY (RS30),2008-025A,2026-06-08T11:41:43.704096,12.43178883,.0019234,82.5048,0.8529,333.4810,26.5284,0,U,32953,999,81861,.48714E-4,.17E-6,0
COSMOS 2437,2008-025B,2026-06-08T12:30:25.403040,12.42759422,.0020594,82.5030,2.8556,351.1888,95.7988,0,U,32954,999,81829,.21144E-3,.39E-6,0
COSMOS 2438,2008-025C,2026-06-08T12:07:34.184928,12.43369151,.0020857,82.5031,358.2319,325.8933,34.0805,0,U,32955,999,81875,.46548E-3,.75E-6,0
COSMOS 2439,2008-025D,2026-06-08T11:29:53.170368,12.43070070,.0020686,82.5081,3.2104,336.7312,23.2829,0,U,32956,999,81863,.17462E-3,.34E-6,0
FENGYUN 3A,2008-026A,2026-06-08T10:45:35.489088,14.19569375,.0009224,98.6881,100.4451,146.7269,213.4489,0,U,32958,999,93416,.59028E-4,.81E-6,0
ZHONGXING-9,2008-028A,2026-06-08T03:33:16.363584,1.00273091,.00044102,0.7446,85.4766,332.9653,343.8072,0,U,33051,999,6594,0,-.234E-5,0
FGRST (GLAST),2008-029A,2026-06-07T23:54:17.430048,15.23903473,.00078301,25.5826,268.3003,214.9845,145.0179,0,U,33053,999,99443,.14870933E-3,.4036E-4,0
SKYNET 5C,2008-030A,2026-06-08T06:24:38.766240,1.00270476,.0004133,3.7652,77.1456,10.2091,247.6816,0,U,33055,999,6586,0,-.124E-5,0
TURKSAT 3A,2008-030B,2026-06-08T11:52:13.850400,1.00272877,.0005213,0.0748,83.6700,344.7246,48.5339,0,U,33056,999,5227,0,.162E-5,0
INTELSAT 25 (IS-25),2008-034A,2026-06-08T12:29:14.991360,0.99020530,.0001899,2.6851,80.4333,34.2971,129.7003,0,U,33153,999,6560,0,-.242E-5,0
ECHOSTAR 11,2008-035A,2026-06-08T12:22:49.255104,1.00271677,.0002392,0.9816,84.2806,340.5531,267.9818,0,U,33207,999,5112,0,-.42E-6,0
SUPERBIRD-C2,2008-038A,2026-06-08T12:19:04.521792,1.00271486,.0006006,2.3376,81.3718,22.6939,113.6035,0,U,33274,999,10564,0,-.29E-5,0
INMARSAT 4-F3,2008-039A,2026-06-08T06:04:20.169408,1.00272507,.0002781,4.2858,31.5988,47.5932,170.5236,0,U,33278,999,4645,0,-.126E-5,0
HUANJING 1A (HJ-1A),2008-041A,2026-06-08T12:51:09.772992,14.83969722,.0019157,97.6685,145.7092,161.9680,198.2218,0,U,33320,999,95712,.21516E-3,.1744E-4,0
HUANJING 1B (HJ-1B),2008-041B,2026-06-08T12:00:59.928768,14.83301598,.0035197,97.6521,148.8735,210.1002,149.8191,0,U,33321,999,95712,.75096E-4,.569E-5,0
GEOEYE 1,2008-042A,2026-06-08T11:25:38.756064,14.64717838,.0005572,98.1236,233.5176,90.3740,269.8101,0,U,33331,999,94887,.10063E-3,.488E-5,0
NIMIQ 4,2008-044A,2026-06-08T11:16:52.257792,1.00270461,.0002029,0.0120,38.3324,28.6736,277.0662,0,U,33373,999,6489,0,-.204E-5,0
GALAXY 19 (G-19),2008-045A,2026-06-08T12:48:10.041120,1.00271843,.0002744,0.0281,92.2328,343.2744,276.4696,0,U,33376,999,6481,0,-.123E-5,0
THEOS,2008-049A,2026-06-08T12:20:23.523360,14.20131424,.0001289,98.5570,217.0794,79.6348,280.4974,0,U,33396,999,91673,-.19458E-4,-.84E-6,0
SHIJIAN-6 03A (SJ-6 03A),2008-053A,2026-06-08T11:23:23.623872,15.17083330,.001252,97.8419,192.4927,48.5838,311.6468,0,U,33408,999,96164,.27099E-3,.5305E-4,0
SHIJIAN-6 03B (SJ-6 03B),2008-053B,2026-06-08T12:27:27.063936,15.04288823,.0021068,97.8587,179.2670,71.6319,288.7195,0,U,33409,999,96144,.15256E-3,.2069E-4,0
COSMO-SKYMED 3,2008-054A,2026-06-08T12:15:43.733376,15.06896076,.0014289,97.8292,17.9379,299.6832,60.2972,0,U,33412,999,95563,.17055E-3,.2485E-4,0
SHIYAN-3 (SY-3),2008-056A,2026-06-08T00:54:51.510816,14.30799433,.00140764,98.6067,185.6708,156.7519,203.4304,0,U,33433,999,91749,.78104243E-4,.161E-5,0
CHUANGXIN 1-02 (CX-1-02),2008-056B,2026-06-08T11:34:25.087584,14.30151494,.0014441,98.6139,185.8358,161.0775,199.0946,0,U,33434,999,91737,.52463E-4,.92E-6,0
ASTRA 1M,2008-057A,2026-06-08T11:45:41.995296,1.00274410,.0005044,0.2729,82.3477,21.3369,349.0363,0,U,33436,999,4565,0,.137E-5,0
YAOGAN-4,2008-061A,2026-06-08T09:31:29.472960,14.83183663,.0015724,97.9306,92.9723,98.3723,261.9274,0,U,33446,999,94436,.13467E-3,.1047E-4,0
EUTELSAT HOTBIRD 13C,2008-065A,2026-06-08T11:25:58.886400,1.00271062,.0003699,2.9269,79.2941,359.9777,298.7900,0,U,33459,999,4725,0,-.267E-5,0
GOSAT (IBUKI),2009-002A,2026-06-08T13:08:15.982080,14.67539457,.0001593,98.0883,270.7372,91.7157,268.4230,0,U,33492,999,93019,.15601E-4,.4E-6,0
STARS (KUKAI),2009-002G,2026-06-08T09:19:18.655104,14.95687325,.0008139,98.1539,106.3380,188.3037,171.8049,0,U,33498,999,93716,.34229E-3,.3748E-4,0
KKS-1 (KISEKI),2009-002H,2026-06-08T11:39:44.834976,14.83102467,.0007063,98.1193,81.7904,328.5178,31.5611,0,U,33499,999,93490,.18948E-3,.1488E-4,0
